377P/Scotti,e,9.0295,225.9586,354.8678,6.694925,0.0568965,0.25135264,97.4474,03/18.0/2025,2000,g  9.5,4.0
# From MPEC 2025-A40
378P/McNaught,e,19.1589,93.7923,193.3226,6.287600,0.0625139,0.46368471,101.4443,03/18.0/2025,2000,g 12.0,4.0
# From MPC115889
379P/Spacewatch,e,12.4363,30.4548,184.6524,3.484078,0.1515557,0.35022299,308.2110,03/18.0/2025,2000,g 15.0,4.0
# From MPEC 2023-C45
380P/PANSTARRS,e,8.0304,127.7569,87.7707,4.440238,0.1053404,0.33442355,229.4323,03/18.0/2025,2000,g 12.5,4.0
# From MPEC 2021-J28
381P/LINEAR-Spacewatch,e,28.3409,173.3167,173.8518,7.145079,0.0516052,0.68063495,103.2417,03/18.0/2025,2000,g 17.5,2.0
# From MPEC 2025-CE3
382P/Larson,e,8.2638,170.4918,162.2768,5.896029,0.0688438,0.26646773,84.7943,03/18.0/2025,2000,g  8.0,4.0
# From MPEC 2022-OB6
383P/Christensen,e,12.3175,207.8549,133.7297,3.548817,0.1474275,0.59850624,290.4762,03/18.0/2025,2000,g 18.0,4.0
# From MPEC 2025-CE3
384P/Kowalski,e,7.2837,354.1891,37.7089,2.897841,0.1997985,0.61627670,35.9379,03/18.0/2025,2000,g 19.5,4.0
# From MPEC 2021-F20
385P/Hill,e,16.8229,357.0395,44.4576,4.288995,0.1109611,0.40192000,222.8815,03/18.0/2025,2000,g 13.0,4.0
# From MPEC 2021-L04
386P/PANSTARRS,e,15.2463,134.9156,353.0983,4.049220,0.1209615,0.41746590,202.0567,03/18.0/2025,2000,g 14.5,4.0
# From MPEC 2021-J28
387P/Boattini,e,8.9382,259.2383,162.8507,4.797362,0.0937995,0.73703276,189.2017,03/18.0/2025,2000,g 15.0,4.0
# From MPEC 2021-S45
388P/Gibbs,e,23.8805,37.0140,42.3611,5.240688,0.0821527,0.61938348,169.3443,03/18.0/2025,2000,g 13.0,4.0
# From MPEC 2022-OB6
389P/Siding Spring,e,160.0807,218.8573,249.3349,5.630478,0.0737711,0.70563170,140.4339,03/18.0/2025,2000,g 16.0,4.0
# From MPEC 2024-EF7
390P/Gibbs,e,18.5243,152.2068,232.5488,5.817432,0.0702437,0.70676934,127.9470,03/18.0/2025,2000,g 12.0,4.0
# From MPEC 2021-F20
391P/Kowalski,e,21.2571,124.7754,186.9806,4.691063,0.0970057,0.11840223,248.3843,03/18.0/2025,2000,g  8.0,4.0
# From MPEC 2021-J28
392P/LINEAR,e,4.9290,24.8108,71.9518,6.142077,0.0647487,0.68394600,117.2045,03/18.0/2025,2000,g 14.5,4.0
# From MPEC 2025-EB9
393P/Spacewatch-Hill,e,16.7843,36.4003,329.2192,4.800002,0.0937221,0.11920766,184.1793,03/18.0/2025,2000,g 11.0,4.0
# From MPEC 2020-KB7
394P/PANSTARRS,e,8.5283,98.1091,54.4352,4.326820,0.1095093,0.36828540,211.8180,03/18.0/2025,2000,g 16.0,2.4
# From MPEC 2025-EB9
395P/Catalina-NEAT,e,3.5715,220.9820,100.6313,7.202401,0.0509904,0.41186689,57.1702,03/18.0/2025,2000,g 10.0,4.0
# From MPEC 2020-KB7
396P/,e,5.4422,136.6091,8.3036,6.798756,0.0555981,0.41693327,112.7560,03/18.0/2025,2000,g 12.0,4.0
# From MPEC 2022-OB6
397P/Lemmon,e,10.9206,8.2120,14.5874,3.832047,0.1313886,0.40466203,227.5490,03/18.0/2025,2000,g 12.0,4.0
# From MPEC 2021-L04
398P/Boattini,e,11.0271,320.1352,127.5457,3.124590,0.1784492,0.58376361,274.8949,03/18.0/2025,2000,g 15.5,4.0
# From MPEC 2023-XP6
399P/PANSTARRS,e,13.3172,207.1199,214.4421,3.793509,0.1333959,0.44733785,186.0028,03/18.0/2025,2000,g 14.0,4.0
# From MPEC 2024-TD8
400P/PANSTARRS,e,10.9253,176.3524,238.9449,3.561946,0.1466132,0.40963831,219.2610,03/18.0/2025,2000,g 15.5,2.8
# From MPEC 2022-K19
401P/McNaught,e,12.8001,359.9249,309.3650,5.777096,0.0709806,0.57836341,137.0899,03/18.0/2025,2000,g 12.5,4.0
# From MPEC 2024-LE0
402P/LINEAR,e,30.8291,123.0474,326.9713,7.039860,0.0527665,0.44004438,62.6882,03/18.0/2025,2000,g  9.0,4.0
# From MPEC 2021-J28
403P/Catalina,e,12.3319,277.5616,163.9602,5.432285,0.0778449,0.50427722,127.8337,03/18.0/2025,2000,g 12.0,4.0
# From MPEC 2025-EG2
404P/Bressi,e,9.8043,260.0421,169.0677,4.719909,0.0961178,0.12442057,48.3035,03/18.0/2025,2000,g 10.0,4.0
# From MPEC 2021-L04
405P/Lemmon,e,9.3790,112.1931,3.3058,3.603961,0.1440568,0.69016954,222.3452,03/18.0/2025,2000,g 17.5,4.0
# From MPEC 2021-F20
406P/Gibbs,e,1.2100,352.3919,11.5613,3.579251,0.1455512,0.54110781,239.3627,03/18.0/2025,2000,g 17.0,4.0
# From MPEC 2022-YN2
407P/PANSTARRS-Fuls,e,4.8762,80.2416,93.2000,3.491658,0.1510625,0.37598383,285.2682,03/18.0/2025,2000,g 14.0,4.0
# From MPEC 2025-EB9
408P/Novichonok-Gerke,e,19.3526,189.4504,226.6800,4.745502,0.0953413,0.26848559,85.2287,03/18.0/2025,2000,g 11.0,4.0
# From MPEC 2022-ED3
409P/LONEOS-Hill,e,17.1467,143.6409,15.0414,6.032812,0.0665157,0.71018175,100.4022,03/18.0/2025,2000,g 14.0,4.0
# From MPEC 2022-M21
410P/NEAT-LINEAR,e,9.3881,139.9378,313.2544,6.652827,0.0574374,0.51174725,78.2467,03/18.0/2025,2000,g 12.5,4.0
# From MPEC 2021-J28
411P/Christensen,e,12.3897,77.6536,46.5551,5.811493,0.0703514,0.58175967,106.4038,03/18.0/2025,2000,g 13.5,4.0
# From MPEC 2021-F20
412P/WISE,e,8.9302,0.8447,155.8688,3.111176,0.1796045,0.47904902,281.2143,03/18.0/2025,2000,g 17.0,4.0
# From MPEC 2022-OB6
413P/Larson,e,15.9578,39.2328,186.4973,3.735761,0.1365009,0.41800459,183.0838,03/18.0/2025,2000,g 14.0,4.0
# From MPEC 2024-JU4
414P/STEREO,e,23.4075,257.8171,210.7069,2.792163,0.2112481,0.81226113,319.3707,03/18.0/2025,2000,g 19.0,4.0
# From MPEC 2022-J42
415P/Tenagra,e,31.8078,160.2587,345.8742,4.108352,0.1183594,0.19547829,176.6985,03/18.0/2025,2000,g 12.0,4.0
# From MPEC 2021-L04
416P/Scotti,e,3.3632,355.7363,134.4433,4.006596,0.1228969,0.45542571,183.1703,03/18.0/2025,2000,g 15.5,4.0
# From MPEC 2021-W31
417P/NEOWISE,e,9.7797,112.4783,126.2254,3.337479,0.1616502,0.55925226,233.5252,03/18.0/2025,2000,g 16.5,4.0
# From MPEC 2022-TA0
418P/LINEAR,e,5.7806,277.6264,307.3384,5.090727,0.0858093,0.66379264,107.1435,03/18.0/2025,2000,g 13.0,4.0
# From MPEC 2023-UR6
419P/PANSTARRS,e,2.7964,40.4171,187.8736,3.532709,0.1484370,0.27409765,184.1001,03/18.0/2025,2000,g 12.5,4.0
# From MPEC 2024-L77
420P/Hill,e,14.4941,173.5990,156.4227,5.485273,0.0767197,0.49513359,79.3591,03/18.0/2025,2000,g 11.5,4.0
# From MPEC 2021-W31
421P/McNaught,e,10.0759,55.3331,259.8695,5.075296,0.0862009,0.67438381,130.5177,03/18.0/2025,2000,g 14.0,4.0
# From MPEC 2024-N80
422P/Christensen,e,39.5807,36.0155,304.7752,6.275517,0.0626945,0.50579892,72.8512,03/18.0/2025,2000,g 11.0,4.0
# From MPEC 2023-FK0
423P/Lemmon,e,8.3433,33.3019,80.8466,6.181183,0.0641352,0.12277580,81.4078,03/18.0/2025,2000,g  8.0,4.0
# From MPEC 2022-CN4
424P/LaSagra,e,8.6820,51.2065,312.5612,4.420836,0.1060346,0.69046877,130.8423,03/18.0/2025,2000,g 17.0,4.0
# From MPEC 2024-C04
425P/Kowalski,e,16.4155,210.0844,200.9799,6.350955,0.0615808,0.54380626,78.4513,03/18.0/2025,2000,g 12.0,4.0
# From MPEC 2024-N80
426P/PANSTARRS,e,17.7840,280.3966,118.4137,3.185998,0.1733148,0.16108084,96.1105,03/18.0/2025,2000,g 13.5,4.0
# From MPEC 2023-J29
428P/Gibbs,e,8.5031,299.3126,36.9018,3.488299,0.1512807,0.51825534,212.5027,03/18.0/2025,2000,g 15.0,4.0
# From MPEC 2024-EF7
429P/LINEAR-Hill,e,7.5144,322.0195,75.7279,3.555619,0.1470047,0.49094720,172.1067,03/18.0/2025,2000,g 15.5,4.0
# From MPEC 2022-L66
430P/Scotti,e,4.4754,54.6516,94.4428,3.103390,0.1802808,0.50021444,216.5837,03/18.0/2025,2000,g 16.5,4.0
# From MPEC 2025-A40
431P/Scotti,e,22.3824,202.8403,199.9974,3.476822,0.1520304,0.47743244,171.5561,03/18.0/2025,2000,g 14.0,4.0
# From MPEC 2021-U31
432P/PANSTARRS,e,10.0681,239.1297,105.2885,3.038115,0.1861220,0.24089346,241.3581,03/18.0/2025,2000,g 17.0,4.0
# From MPEC 2024-D33
434P/Tenagra,e,6.3362,288.9152,128.4297,4.135558,0.1171933,0.27441620,145.0683,03/18.0/2025,2000,g 13.0,4.0
# From MPEC 2021-W31
435P/PANSTARRS,e,18.8744,98.5246,244.2219,3.021424,0.1876664,0.31760917,249.7171,03/18.0/2025,2000,g 17.0,4.0
# From MPEC 2022-X67
436P/Garradd,e,20.1993,87.1559,282.7597,5.936754,0.0681366,0.66916516,81.4941,03/18.0/2025,2000,g 14.5,4.0
# From MPEC 2023-B57
437P/Lemmon-PANSTARRS,e,3.6891,245.8398,207.0344,4.568394,0.1009389,0.25509516,94.9691,03/18.0/2025,2000,g 13.0,4.0
# From MPEC 2025-A40
438P/Christensen,e,8.2807,260.1083,58.9996,3.852313,0.1303532,0.41416798,236.0086,03/18.0/2025,2000,g 14.5,4.0
# From MPEC 2022-C56
439P/LINEAR,e,7.1125,56.4371,342.1054,3.491659,0.1510624,0.46918700,196.3161,03/18.0/2025,2000,g 13.5,4.0
# From MPEC 2024-N80
440P/Kobayashi,e,12.3492,328.8107,183.2950,8.578274,0.0392287,0.76080162,42.5125,03/18.0/2025,2000,g 15.5,4.0
# From MPEC 2022-X67
441P/PANSTARRS,e,2.5747,143.5921,178.8691,4.132444,0.1173258,0.19470520,339.4223,03/18.0/2025,2000,g 13.5,4.0
# From MPEC 2024-N80
442P/McNaught,e,6.0573,31.9674,310.6625,4.956676,0.0893138,0.53253605,84.2379,03/18.0/2025,2000,g 13.5,4.0
# From MPEC 2024-TD8
443P/PANSTARRS-Christensen,e,19.8878,108.9361,145.0828,4.124710,0.1176560,0.28302310,104.7608,03/18.0/2025,2000,g 13.5,4.0
# From MPEC 2023-VM5
444P/WISE-PANSTARRS,e,22.7315,88.1824,172.8561,3.468089,0.1526050,0.55996591,150.8999,03/18.0/2025,2000,g 17.0,4.0
# From MPEC 2024-BE0
445P/Lemmon-PANSTARRS,e,1.0887,126.5899,213.2481,4.047143,0.1210546,0.41403578,114.3579,03/18.0/2025,2000,g 15.0,4.0
# From MPEC 2024-NE4
446P/McNaught,e,16.6231,336.3520,344.6362,4.561231,0.1011768,0.64669329,103.6192,03/18.0/2025,2000,g 16.5,4.0
# From MPEC 2022-YB4
447P/Sheppard-Tholen,e,7.4405,302.6361,97.5904,5.627462,0.0738304,0.17746949,69.6832,03/18.0/2025,2000,g 12.0,4.0
# From MPEC 2024-PC5
448P/PANSTARRS,e,12.1459,161.7557,218.7982,3.636165,0.1421473,0.41826138,131.3054,03/18.0/2025,2000,g 16.0,4.0
# From MPEC 2024-DC6
449P/Leonard,e,15.4710,242.5232,176.7604,3.599861,0.1443030,0.47981392,227.0921,03/18.0/2025,2000,g 16.0,4.0
# From MPEC 2025-DP4
450P/LONEOS,e,10.6287,124.4277,22.7923,7.952189,0.0439515,0.31407860,330.1267,03/18.0/2025,2000,g  6.5,4.0
# From MPEC 2023-HD1
451P/Christensen,e,26.4837,300.8712,186.7778,6.348975,0.0616096,0.55919427,51.8201,03/18.0/2025,2000,g 15.5,4.0
# From MPEC 2024-NE4
452P/Sheppard-Jewitt,e,6.4218,123.6680,37.0819,7.309459,0.0498742,0.42844997,34.5201,03/18.0/2025,2000,g  9.0,4.0
# From MPEC 2023-RF3
453P/WISE-Lemmon,e,27.0622,42.8943,70.8871,5.466632,0.0771124,0.58312526,57.5013,03/18.0/2025,2000,g 14.0,4.0
# From MPEC 2023-CD7
454P/PANSTARRS,e,19.8108,54.5849,20.1788,4.210979,0.1140590,0.36149844,110.1070,03/18.0/2025,2000,g 14.0,4.0
# From MPEC 2022-Y14
